NORAD_CAT_ID,OBJECT_NAME,OBJECT_TYPE,EPOCH,MEAN_MOTION,ECCENTRICITY,INCLINATION,RA_OF_ASC_NODE,ARG_OF_PERICENTER,MEAN_ANOMALY,BSTAR,MEAN_MOTION_DOT,MEAN_MOTION_DDOT,TLE_LINE0,TLE_LINE1,TLE_LINE2,SEMIMAJOR_AXIS,PERIOD,APOGEE,PERIGEE,DECAYED
54073.0,STARLINK-5146,PAYLOAD,2024-05-27 20:17:08,15.08852846,9.72e-05,53.218,20.5381,92.011,268.0993,0.00042021,6.408e-05,0.0,0 STARLINK-5146,1 54073U 22136Y   24148.84523311  .00006408  00000-0  42021-3 0  9999,2 54073  53.2180  20.5381 0000972  92.0110 268.0993 15.08852846 89146,6917.841,95.437,540.379,539.034,0.0
54073.0,STARLINK-5146,PAYLOAD,2024-05-27 21:52:31,15.0885877,0.0001153,53.2183,20.2382,74.908,285.2039,0.00044584,6.818e-05,0.0,0 STARLINK-5146,1 54073U 22136Y   24148.91147150  .00006818  00000-0  44584-3 0  9991,2 54073  53.2183  20.2382 0001153  74.9080 285.2039 15.08858770 88675,6917.823,95.436,540.486,538.89,0.0
54073.0,STARLINK-5146,PAYLOAD,2024-05-28 09:00:12,15.08879728,0.0001175,53.2183,18.1544,73.6776,286.4345,0.00090548,0.00014168,0.0,0 STARLINK-5146,1 54073U 22136Y   24149.37514372  .00014168  00000-0  90548-3 0  9994,2 54073  53.2183  18.1544 0001175  73.6776 286.4345 15.08879728 89224,6917.759,95.435,540.437,538.811,0.0
54073.0,STARLINK-5146,PAYLOAD,2024-05-28 20:07:54,15.08863963,0.0001029,53.2173,16.0662,107.3643,252.7462,0.0004032,6.139e-05,0.0,0 STARLINK-5146,1 54073U 22136Y   24149.83882466  .00006139  00000-0  40320-3 0  9999,2 54073  53.2173  16.0662 0001029 107.3643 252.7462 15.08863963 89294,6917.807,95.436,540.384,538.96,0.0
54073.0,STARLINK-5146,PAYLOAD,2024-05-28 21:43:17,15.08862564,0.0001009,53.2171,15.7692,109.9,250.21,0.00045734,7.003e-05,0.0,0 STARLINK-5146,1 54073U 22136Y   24149.90506396  .00007003  00000-0  45734-3 0  9997,2 54073  53.2171  15.7692 0001009 109.9000 250.2100 15.08862564 88820,6917.811,95.436,540.374,538.978,0.0
54073.0,STARLINK-5146,PAYLOAD,2024-05-29 21:34:04,15.0885066,0.0001167,53.2183,11.3142,67.6971,292.4145,-3.1805e-05,-7.94e-06,0.0,0 STARLINK-5146,1 54073U 22136Y   24150.89866471 -.00000794  00000-0 -31805-4 0  9997,2 54073  53.2183  11.3142 0001167  67.6971 292.4145 15.08850660 89458,6917.848,95.437,540.52,538.905,0.0
54073.0,STARLINK-5146,PAYLOAD,2024-05-30 00:44:50,15.08848757,0.0001133,53.2183,10.7221,98.8308,261.2813,3.5467e-05,2.77e-06,0.0,0 STARLINK-5146,1 54073U 22136Y   24151.03114459  .00000277  00000-0  35467-4 0  9998,2 54073  53.2183  10.7221 0001133  98.8308 261.2813 15.08848757 88990,6917.854,95.437,540.502,538.935,0.0
54073.0,STARLINK-5146,PAYLOAD,2024-05-30 19:49:28,15.08851607,0.0001182,53.2182,7.1536,89.4818,270.6309,0.00021483,3.134e-05,0.0,0 STARLINK-5146,1 54073U 22136Y   24151.82602163  .00003134  00000-0  21483-3 0  9996,2 54073  53.2182   7.1536 0001182  89.4818 270.6309 15.08851607 89111,6917.845,95.437,540.528,538.892,0.0
54073.0,STARLINK-5146,PAYLOAD,2024-05-31 00:35:37,15.08855167,0.0001215,53.2183,6.2605,95.7014,264.4116,0.00024952,3.687e-05,0.0,0 STARLINK-5146,1 54073U 22136Y   24152.02473836  .00003687  00000-0  24952-3 0  9999,2 54073  53.2183   6.2605 0001215  95.7014 264.4116 15.08855167 89622,6917.834,95.437,540.54,538.859,0.0
54073.0,STARLINK-5146,PAYLOAD,2024-05-31 19:40:15,15.08838832,0.0001232,53.2188,2.6952,85.2707,274.8426,-3.2571e-05,-8.06e-06,0.0,0 STARLINK-5146,1 54073U 22136Y   24152.81962422 -.00000806  00000-0 -32571-4 0  9999,2 54073  53.2188   2.6952 0001232  85.2707 274.8426 15.08838832 89746,6917.884,95.438,540.601,538.897,0.0
54073.0,STARLINK-5146,PAYLOAD,2024-06-01 06:47:57,15.08835652,0.0001309,53.2189,0.6132,80.5869,279.5272,-7.5389e-05,-1.487e-05,0.0,0 STARLINK-5146,1 54073U 22136Y   24153.28330644 -.00001487  00000-0 -75389-4 0  9996,2 54073  53.2189   0.6132 0001309  80.5869 279.5272 15.08835652 89330,6917.894,95.438,540.664,538.853,0.0
54073.0,STARLINK-5146,PAYLOAD,2024-06-01 19:31:03,15.08834825,0.0001177,53.2192,358.2368,90.8752,269.2375,-9.2703e-05,-1.763e-05,0.0,0 STARLINK-5146,1 54073U 22136Y   24153.81323683 -.00001763  00000-0 -92703-4 0  9996,2 54073  53.2192 358.2368 0001177  90.8752 269.2375 15.08834825 89897,6917.896,95.438,540.575,538.947,0.0
54073.0,STARLINK-5146,PAYLOAD,2024-06-02 13:00:17,15.0883964,0.0001363,53.2206,354.9635,78.7381,281.3764,7.201e-05,8.58e-06,0.0,0 STARLINK-5146,1 54073U 22136Y   24154.54187174  .00000858  00000-0  72010-4 0  9991,2 54073  53.2206 354.9635 0001363  78.7381 281.3764 15.08839640 90005,6917.881,95.438,540.689,538.804,0.0
54073.0,STARLINK-5146,PAYLOAD,2024-06-03 19:12:37,15.08844583,0.0001482,53.22,349.3148,86.2542,273.862,0.00021904,3.2e-05,0.0,0 STARLINK-5146,1 54073U 22136Y   24155.80042836  .00003200  00000-0  21904-3 0  9995,2 54073  53.2200 349.3148 0001482  86.2542 273.8620 15.08844583 90190,6917.866,95.437,540.757,538.706,0.0
54073.0,STARLINK-5146,PAYLOAD,2024-06-04 06:20:19,15.08844963,0.0001149,53.2185,347.2332,87.4392,272.6732,0.00012783,1.747e-05,0.0,0 STARLINK-5146,1 54073U 22136Y   24156.26410905  .00001747  00000-0  12783-3 0  9991,2 54073  53.2185 347.2332 0001149  87.4392 272.6732 15.08844963 89786,6917.865,95.437,540.525,538.935,0.0
54073.0,STARLINK-5146,PAYLOAD,2024-06-04 19:03:24,15.0884244,0.0001206,53.2155,344.8518,95.2624,264.8505,0.00011402,1.527e-05,0.0,0 STARLINK-5146,1 54073U 22136Y   24156.79402983  .00001527  00000-0  11402-3 0  9999,2 54073  53.2155 344.8518 0001206  95.2624 264.8505 15.08842440 90344,6917.873,95.437,540.572,538.904,0.0
54073.0,STARLINK-5146,PAYLOAD,2024-06-04 22:14:10,15.08847003,0.0001368,53.213,344.2568,97.1383,262.9765,8.6851e-05,1.095e-05,0.0,0 STARLINK-5146,1 54073U 22136Y   24156.92650587  .00001095  00000-0  86851-4 0  9990,2 54073  53.2130 344.2568 0001368  97.1383 262.9765 15.08847003 89882,6917.859,95.437,540.67,538.778,0.0
54073.0,STARLINK-5146,PAYLOAD,2024-06-05 12:32:38,15.08847262,0.0001341,53.2086,341.5792,98.9791,261.1353,-0.00012307,-2.246e-05,0.0,0 STARLINK-5146,1 54073U 22136Y   24157.52266944 -.00002246  00000-0 -12307-3 0  9992,2 54073  53.2086 341.5792 0001341  98.9791 261.1353 15.08847262 89975,6917.858,95.437,540.651,538.796,0.0
54073.0,STARLINK-5146,PAYLOAD,2024-06-05 22:04:58,15.08825384,0.0001479,53.2128,339.7953,99.2007,260.9153,0.00011928,1.61e-05,0.0,0 STARLINK-5146,1 54073U 22136Y   24157.92011855  .00001610  00000-0  11928-3 0  9995,2 54073  53.2128 339.7953 0001479  99.2007 260.9153 15.08825384 90031,6917.925,95.438,540.813,538.767,0.0
54073.0,STARLINK-5146,PAYLOAD,2024-06-06 18:44:57,15.08877248,0.0002025,53.2176,335.9312,86.3918,273.7306,-0.00045458,-7.523e-05,0.0,0 STARLINK-5146,1 54073U 22136Y   24158.78121606 -.00007523  00000-0 -45458-3 0  9992,2 54073  53.2176 335.9312 0002025  86.3918 273.7306 15.08877248 90642,6917.767,95.435,541.032,538.231,0.0
54073.0,STARLINK-5146,PAYLOAD,2024-06-07 18:35:45,15.08839232,9.64e-05,53.2167,331.4721,81.2849,278.8252,8.152e-05,1.01e-05,0.0,0 STARLINK-5146,1 54073U 22136Y   24159.77483663  .00001010  00000-0  81520-4 0  9990,2 54073  53.2167 331.4721 0000964  81.2849 278.8252 15.08839232 90797,6917.883,95.438,540.415,539.081,0.0
54073.0,STARLINK-5146,PAYLOAD,2024-06-08 04:08:04,15.08841156,0.0001184,53.2173,329.6881,85.3432,274.7696,0.00010318,1.355e-05,0.0,0 STARLINK-5146,1 54073U 22136Y   24160.17227550  .00001355  00000-0  10318-3 0  9995,2 54073  53.2173 329.6881 0001184  85.3432 274.7696 15.08841156 90377,6917.877,95.437,540.561,538.923,0.0
54073.0,STARLINK-5146,PAYLOAD,2024-06-08 20:01:55,15.08847861,0.0001127,53.2142,326.7122,78.8158,281.2961,0.00021766,3.179e-05,0.0,0 STARLINK-5146,1 54073U 22136Y   24160.83466730  .00003179  00000-0  21766-3 0  9998,2 54073  53.2142 326.7122 0001127  78.8158 281.2961 15.08847861 90959,6917.856,95.437,540.501,538.942,0.0
54073.0,STARLINK-5146,PAYLOAD,2024-06-09 10:20:24,15.08842376,0.0002243,53.2161,324.0369,66.0707,294.052,4.4303e-05,4.17e-06,0.0,0 STARLINK-5146,1 54073U 22136Y   24161.43083498  .00000417  00000-0  44303-4 0  9996,2 54073  53.2161 324.0369 0002243  66.0707 294.0520 15.08842376 91043,6917.873,95.437,541.29,538.186,0.0
54073.0,STARLINK-5146,PAYLOAD,2024-06-10 03:49:39,15.08832005,0.0001516,53.2161,320.7679,76.0429,284.0732,-9.3871e-05,-1.781e-05,0.0,0 STARLINK-5146,1 54073U 22136Y   24162.15948250 -.00001781  00000-0 -93871-4 0  9993,2 54073  53.2161 320.7679 0001516  76.0429 284.0732 15.08832005 91158,6917.905,95.438,540.819,538.721,0.0
54073.0,STARLINK-5146,PAYLOAD,2024-06-10 18:08:06,15.08851564,0.000133,53.218,318.0897,68.4855,291.6279,0.00026304,3.902e-05,0.0,0 STARLINK-5146,1 54073U 22136Y   24162.75563364  .00003902  00000-0  26304-3 0  9999,2 54073  53.2180 318.0897 0001330  68.4855 291.6279 15.08851564 91244,6917.845,95.437,540.63,538.79,0.0
54073.0,STARLINK-5146,PAYLOAD,2024-06-11 03:40:26,15.08835256,0.0001337,53.219,316.3059,69.5288,290.5848,3.9989e-05,3.49e-06,0.0,0 STARLINK-5146,1 54073U 22136Y   24163.15308357  .00000349  00000-0  39989-4 0  9999,2 54073  53.2190 316.3059 0001337  69.5288 290.5848 15.08835256 91302,6917.895,95.438,540.685,538.835,0.0
54073.0,STARLINK-5146,PAYLOAD,2024-06-11 10:01:59,15.0882882,0.0002022,53.2159,315.119,72.2289,287.8923,0.00019056,2.745e-05,0.0,0 STARLINK-5146,1 54073U 22136Y   24163.41805139  .00002745  00000-0  19056-3 0  9992,2 54073  53.2159 315.1190 0002022  72.2289 287.8923 15.08828820 90866,6917.915,95.438,541.178,538.381,0.0
54073.0,STARLINK-5146,PAYLOAD,2024-06-12 03:31:14,15.08836957,0.0001123,53.2182,311.8452,83.0219,277.0901,0.00017624,2.518e-05,0.0,0 STARLINK-5146,1 54073U 22136Y   24164.14669133  .00002518  00000-0  17624-3 0  9992,2 54073  53.2182 311.8452 0001123  83.0219 277.0901 15.08836957 90979,6917.89,95.438,540.532,538.978,0.0
54073.0,STARLINK-5146,PAYLOAD,2024-06-12 13:03:32,15.08847821,0.0001221,53.2172,310.0615,81.1552,278.9578,0.0003922,5.961e-05,0.0,0 STARLINK-5146,1 54073U 22136Y   24164.54412817  .00005961  00000-0  39220-3 0  9992,2 54073  53.2172 310.0615 0001221  81.1552 278.9578 15.08847821 91511,6917.856,95.437,540.566,538.877,0.0
